<?xml version="1.0" encoding="UTF-8"?>
<ndm xmlns:xsi="http://www.w3.org/2001/XMLSchema-instance" xsi:noNamespaceSchemaLocation="https://sanaregistry.org/r/ndmxml_unqualified/ndmxml-2.0.0-master-2.0.xsd">
<omm id="CCSDS_OMM_VERS" version="2.0">
<header><CREATION_DATE/><ORIGINATOR/></header><body><segment><metadata><OBJECT_NAME>ORBCOMM FM20</OBJECT_NAME><OBJECT_ID>1998-046D</OBJECT_ID><CENTER_NAME>EARTH</CENTER_NAME><REF_FRAME>TEME</REF_FRAME><TIME_SYSTEM>UTC</TIME_SYSTEM><MEAN_ELEMENT_THEORY>SGP4</MEAN_ELEMENT_THEORY></metadata><data><meanElements><EPOCH>2024-12-12T10:28:21.262080</EPOCH><MEAN_MOTION>14.36436660</MEAN_MOTION><ECCENTRICITY>.0001972</ECCENTRICITY><INCLINATION>44.9951</INCLINATION><RA_OF_ASC_NODE>345.2014</RA_OF_ASC_NODE><ARG_OF_PERICENTER>303.9089</ARG_OF_PERICENTER><MEAN_ANOMALY>56.1570</MEAN_ANOMALY></meanElements><tleParameters><EPHEMERIS_TYPE>0</EPHEMERIS_TYPE><CLASSIFICATION_TYPE>U</CLASSIFICATION_TYPE><NORAD_CAT_ID>25416</NORAD_CAT_ID><ELEMENT_SET_NO>999</ELEMENT_SET_NO><REV_AT_EPOCH>37740</REV_AT_EPOCH><BSTAR>.65763E-3</BSTAR><MEAN_MOTION_DOT>.1804E-4</MEAN_MOTION_DOT><MEAN_MOTION_DDOT>0</MEAN_MOTION_DDOT></tleParameters></data></segment></body></omm>
<omm id="CCSDS_OMM_VERS" version="2.0">
<header><CREATION_DATE/><ORIGINATOR/></header><body><segment><metadata><OBJECT_NAME>ORBCOMM FM16</OBJECT_NAME><OBJECT_ID>1998-046E</OBJECT_ID><CENTER_NAME>EARTH</CENTER_NAME><REF_FRAME>TEME</REF_FRAME><TIME_SYSTEM>UTC</TIME_SYSTEM><MEAN_ELEMENT_THEORY>SGP4</MEAN_ELEMENT_THEORY></metadata><data><meanElements><EPOCH>2024-12-12T13:36:14.407488</EPOCH><MEAN_MOTION>14.37836242</MEAN_MOTION><ECCENTRICITY>.0002969</ECCENTRICITY><INCLINATION>44.9946</INCLINATION><RA_OF_ASC_NODE>338.4123</RA_OF_ASC_NODE><ARG_OF_PERICENTER>44.2896</ARG_OF_PERICENTER><MEAN_ANOMALY>315.8189</MEAN_ANOMALY></meanElements><tleParameters><EPHEMERIS_TYPE>0</EPHEMERIS_TYPE><CLASSIFICATION_TYPE>U</CLASSIFICATION_TYPE><NORAD_CAT_ID>25417</NORAD_CAT_ID><ELEMENT_SET_NO>999</ELEMENT_SET_NO><REV_AT_EPOCH>37738</REV_AT_EPOCH><BSTAR>.83072E-3</BSTAR><MEAN_MOTION_DOT>.2386E-4</MEAN_MOTION_DOT><MEAN_MOTION_DDOT>0</MEAN_MOTION_DDOT></tleParameters></data></segment></body></omm>
<omm id="CCSDS_OMM_VERS" version="2.0">
<header><CREATION_DATE/><ORIGINATOR/></header><body><segment><metadata><OBJECT_NAME>ORBCOMM FM15</OBJECT_NAME><OBJECT_ID>1998-046F</OBJECT_ID><CENTER_NAME>EARTH</CENTER_NAME><REF_FRAME>TEME</REF_FRAME><TIME_SYSTEM>UTC</TIME_SYSTEM><MEAN_ELEMENT_THEORY>SGP4</MEAN_ELEMENT_THEORY></metadata><data><meanElements><EPOCH>2024-12-12T10:18:53.978688</EPOCH><MEAN_MOTION>14.37516646</MEAN_MOTION><ECCENTRICITY>.0002484</ECCENTRICITY><INCLINATION>44.9979</INCLINATION><RA_OF_ASC_NODE>343.6759</RA_OF_ASC_NODE><ARG_OF_PERICENTER>41.1783</ARG_OF_PERICENTER><MEAN_ANOMALY>318.9252</MEAN_ANOMALY></meanElements><tleParameters><EPHEMERIS_TYPE>0</EPHEMERIS_TYPE><CLASSIFICATION_TYPE>U</CLASSIFICATION_TYPE><NORAD_CAT_ID>25418</NORAD_CAT_ID><ELEMENT_SET_NO>999</ELEMENT_SET_NO><REV_AT_EPOCH>37736</REV_AT_EPOCH><BSTAR>.86736E-3</BSTAR><MEAN_MOTION_DOT>.2481E-4</MEAN_MOTION_DOT><MEAN_MOTION_DDOT>0</MEAN_MOTION_DDOT></tleParameters></data></segment></body></omm>
<omm id="CCSDS_OMM_VERS" version="2.0">
<header><CREATION_DATE/><ORIGINATOR/></header><body><segment><metadata><OBJECT_NAME>ORBCOMM FM14</OBJECT_NAME><OBJECT_ID>1998-046G</OBJECT_ID><CENTER_NAME>EARTH</CENTER_NAME><REF_FRAME>TEME</REF_FRAME><TIME_SYSTEM>UTC</TIME_SYSTEM><MEAN_ELEMENT_THEORY>SGP4</MEAN_ELEMENT_THEORY></metadata><data><meanElements><EPOCH>2024-12-12T06:45:44.858880</EPOCH><MEAN_MOTION>14.37803255</MEAN_MOTION><ECCENTRICITY>.0002168</ECCENTRICITY><INCLINATION>44.9967</INCLINATION><RA_OF_ASC_NODE>343.1027</RA_OF_ASC_NODE><ARG_OF_PERICENTER>10.3787</ARG_OF_PERICENTER><MEAN_ANOMALY>349.7105</MEAN_ANOMALY></meanElements><tleParameters><EPHEMERIS_TYPE>0</EPHEMERIS_TYPE><CLASSIFICATION_TYPE>U</CLASSIFICATION_TYPE><NORAD_CAT_ID>25419</NORAD_CAT_ID><ELEMENT_SET_NO>999</ELEMENT_SET_NO><REV_AT_EPOCH>37730</REV_AT_EPOCH><BSTAR>.88242E-3</BSTAR><MEAN_MOTION_DOT>.2542E-4</MEAN_MOTION_DOT><MEAN_MOTION_DDOT>0</MEAN_MOTION_DDOT></tleParameters></data></segment></body></omm>
<omm id="CCSDS_OMM_VERS" version="2.0">
<header><CREATION_DATE/><ORIGINATOR/></header><body><segment><metadata><OBJECT_NAME>ORBCOMM FM13</OBJECT_NAME><OBJECT_ID>1998-046H</OBJECT_ID><CENTER_NAME>EARTH</CENTER_NAME><REF_FRAME>TEME</REF_FRAME><TIME_SYSTEM>UTC</TIME_SYSTEM><MEAN_ELEMENT_THEORY>SGP4</MEAN_ELEMENT_THEORY></metadata><data><meanElements><EPOCH>2024-12-12T10:55:04.980864</EPOCH><MEAN_MOTION>14.36778205</MEAN_MOTION><ECCENTRICITY>.0003899</ECCENTRICITY><INCLINATION>44.9983</INCLINATION><RA_OF_ASC_NODE>348.5840</RA_OF_ASC_NODE><ARG_OF_PERICENTER>30.7401</ARG_OF_PERICENTER><MEAN_ANOMALY>329.3675</MEAN_ANOMALY></meanElements><tleParameters><EPHEMERIS_TYPE>0</EPHEMERIS_TYPE><CLASSIFICATION_TYPE>U</CLASSIFICATION_TYPE><NORAD_CAT_ID>25420</NORAD_CAT_ID><ELEMENT_SET_NO>999</ELEMENT_SET_NO><REV_AT_EPOCH>37637</REV_AT_EPOCH><BSTAR>.71322E-3</BSTAR><MEAN_MOTION_DOT>.1983E-4</MEAN_MOTION_DOT><MEAN_MOTION_DDOT>0</MEAN_MOTION_DDOT></tleParameters></data></segment></body></omm>
<omm id="CCSDS_OMM_VERS" version="2.0">
<header><CREATION_DATE/><ORIGINATOR/></header><body><segment><metadata><OBJECT_NAME>ORBCOMM FM21</OBJECT_NAME><OBJECT_ID>1998-053A</OBJECT_ID><CENTER_NAME>EARTH</CENTER_NAME><REF_FRAME>TEME</REF_FRAME><TIME_SYSTEM>UTC</TIME_SYSTEM><MEAN_ELEMENT_THEORY>SGP4</MEAN_ELEMENT_THEORY></metadata><data><meanElements><EPOCH>2024-12-12T13:33:17.062848</EPOCH><MEAN_MOTION>14.36573825</MEAN_MOTION><ECCENTRICITY>.000171</ECCENTRICITY><INCLINATION>45.0086</INCLINATION><RA_OF_ASC_NODE>72.7954</RA_OF_ASC_NODE><ARG_OF_PERICENTER>267.7195</ARG_OF_PERICENTER><MEAN_ANOMALY>92.3457</MEAN_ANOMALY></meanElements><tleParameters><EPHEMERIS_TYPE>0</EPHEMERIS_TYPE><CLASSIFICATION_TYPE>U</CLASSIFICATION_TYPE><NORAD_CAT_ID>25475</NORAD_CAT_ID><ELEMENT_SET_NO>999</ELEMENT_SET_NO><REV_AT_EPOCH>37040</REV_AT_EPOCH><BSTAR>.69063E-3</BSTAR><MEAN_MOTION_DOT>.1907E-4</MEAN_MOTION_DOT><MEAN_MOTION_DDOT>0</MEAN_MOTION_DDOT></tleParameters></data></segment></body></omm>
<omm id="CCSDS_OMM_VERS" version="2.0">
<header><CREATION_DATE/><ORIGINATOR/></header><body><segment><metadata><OBJECT_NAME>ORBCOMM FM22</OBJECT_NAME><OBJECT_ID>1998-053B</OBJECT_ID><CENTER_NAME>EARTH</CENTER_NAME><REF_FRAME>TEME</REF_FRAME><TIME_SYSTEM>UTC</TIME_SYSTEM><MEAN_ELEMENT_THEORY>SGP4</MEAN_ELEMENT_THEORY></metadata><data><meanElements><EPOCH>2024-12-12T10:41:33.550944</EPOCH><MEAN_MOTION>14.37386931</MEAN_MOTION><ECCENTRICITY>.0002638</ECCENTRICITY><INCLINATION>45.0081</INCLINATION><RA_OF_ASC_NODE>69.5683</RA_OF_ASC_NODE><ARG_OF_PERICENTER>312.6674</ARG_OF_PERICENTER><MEAN_ANOMALY>47.3951</MEAN_ANOMALY></meanElements><tleParameters><EPHEMERIS_TYPE>0</EPHEMERIS_TYPE><CLASSIFICATION_TYPE>U</CLASSIFICATION_TYPE><NORAD_CAT_ID>25476</NORAD_CAT_ID><ELEMENT_SET_NO>999</ELEMENT_SET_NO><REV_AT_EPOCH>37039</REV_AT_EPOCH><BSTAR>.87482E-3</BSTAR><MEAN_MOTION_DOT>.2496E-4</MEAN_MOTION_DOT><MEAN_MOTION_DDOT>0</MEAN_MOTION_DDOT></tleParameters></data></segment></body></omm>
<omm id="CCSDS_OMM_VERS" version="2.0">
<header><CREATION_DATE/><ORIGINATOR/></header><body><segment><metadata><OBJECT_NAME>ORBCOMM FM23</OBJECT_NAME><OBJECT_ID>1998-053C</OBJECT_ID><CENTER_NAME>EARTH</CENTER_NAME><REF_FRAME>TEME</REF_FRAME><TIME_SYSTEM>UTC</TIME_SYSTEM><MEAN_ELEMENT_THEORY>SGP4</MEAN_ELEMENT_THEORY></metadata><data><meanElements><EPOCH>2024-12-12T10:41:12.028704</EPOCH><MEAN_MOTION>14.36676154</MEAN_MOTION><ECCENTRICITY>.0002013</ECCENTRICITY><INCLINATION>45.0085</INCLINATION><RA_OF_ASC_NODE>75.6923</RA_OF_ASC_NODE><ARG_OF_PERICENTER>296.3467</ARG_OF_PERICENTER><MEAN_ANOMALY>63.7173</MEAN_ANOMALY></meanElements><tleParameters><EPHEMERIS_TYPE>0</EPHEMERIS_TYPE><CLASSIFICATION_TYPE>U</CLASSIFICATION_TYPE><NORAD_CAT_ID>25477</NORAD_CAT_ID><ELEMENT_SET_NO>999</ELEMENT_SET_NO><REV_AT_EPOCH>37053</REV_AT_EPOCH><BSTAR>.85095E-3</BSTAR><MEAN_MOTION_DOT>.2388E-4</MEAN_MOTION_DOT><MEAN_MOTION_DDOT>0</MEAN_MOTION_DDOT></tleParameters></data></segment></body></omm>

</ndm>
